*******************************************************************************
Ephemeris / WWW_USER Mon Jul 15 19:22:34 2024 Pasadena, USA      / Horizons    
*******************************************************************************
Target body name: (2018 RB1)                      {source: JPL#5}
Center body name: Earth (399)                     {source: DE441}
Center-site name: Gemini South Obs., Cerro Pachon
*******************************************************************************
Start time      : A.D. 2019-Jan-27 23:53:00.0000 UT      
Stop  time      : A.D. 2019-Jan-28 09:58:00.0000 UT      
Step-size       : 1 minutes
*******************************************************************************
Target pole/equ : undefined
Target radii    : undefined                                                    
Center geodetic : 289.2634, -30.2406227, 2.71233  {E-lon(deg),Lat(deg),Alt(km)}
Center cylindric: 289.2634,5517.21435,-3194.81213 {E-lon(deg),Dxy(km),Dz(km)}
Center pole/equ : ITRF93                          {East-longitude positive}
Center radii    : 6378.137, 6378.137, 6356.752 km {Equator_a, b, pole_c}       
Target primary  : Sun
Vis. interferer : MOON (R_eq= 1737.400) km        {source: DE441}
Rel. light bend : Sun                             {source: DE441}
Rel. lght bnd GM: 1.3271E+11 km^3/s^2                                          
Small-body perts: Yes                             {source: SB441-N16}
Atmos refraction: NO (AIRLESS)
RA format       : HMS
Time format     : CAL 
Calendar mode   : Mixed Julian/Gregorian
RTS-only print  : NO       
EOP file        : eop.240715.p241008                                           
EOP coverage    : DATA-BASED 1962-JAN-20 TO 2024-JUL-15. PREDICTS-> 2024-OCT-07
Units conversion: 1 au= 149597870.700 km, c= 299792.458 km/s, 1 day= 86400.0 s 
Table cut-offs 1: Elevation (-90.0deg=NO ),Airmass (>38.000=NO), Daylight (YES)
Table cut-offs 2: Solar elongation (  0.0,180.0=NO ),Local Hour Angle( 0.0=NO )
Table cut-offs 3: RA/DEC angular rate (     0.0=NO )                           
*******************************************************************************
Initial IAU76/J2000 heliocentric ecliptic osculating elements (au, days, deg.):
  EPOCH=  2458368.5 ! 2018-Sep-07.00 (TDB)         Residual RMS= .299          
   EC= .2816093255492492   QR= .7991213126369837   TP= 2458438.7854507864      
   OM= 166.9631715555783   W=  267.8210074013559   IN= 5.127543488636634       
  Equivalent ICRF heliocentric cartesian coordinates (au, au/d):
   X= 9.883258176612897E-01  Y=-2.654573099408967E-01  Z=-1.095366816313374E-01
  VX= 1.112505236628486E-04 VY= 1.667631342697191E-02 VZ= 5.559084906068471E-03
Asteroid physical parameters (km, seconds, rotational period in hours):        
   GM= n.a.                RAD= n.a.               ROTPER= n.a.                
   H= 27.9                 G= .150                 B-V= n.a.                   
                           ALBEDO= n.a.            STYP= n.a.                  
*******************************************************************************
 Date__(UT)__HR:MN     R.A._________(ICRF)_________DEC
******************************************************
$$SOE
 2019-Jan-27 23:53 C   15 19 31.699561 -18 19 33.88886
 2019-Jan-27 23:54 C   15 19 31.809608 -18 19 33.97780
 2019-Jan-27 23:55 C   15 19 31.919652 -18 19 34.06680
 2019-Jan-27 23:56 C   15 19 32.029695 -18 19 34.15586
 2019-Jan-27 23:57 C   15 19 32.139736 -18 19 34.24498
 2019-Jan-27 23:58 C   15 19 32.249776 -18 19 34.33416
 2019-Jan-27 23:59 C   15 19 32.359813 -18 19 34.42340
 2019-Jan-28 00:00 C   15 19 32.469848 -18 19 34.51270
 2019-Jan-28 00:01 C   15 19 32.579881 -18 19 34.60206
 2019-Jan-28 00:02 C   15 19 32.689912 -18 19 34.69149
 2019-Jan-28 00:03 C   15 19 32.799941 -18 19 34.78097
 2019-Jan-28 00:04 C   15 19 32.909968 -18 19 34.87051
 2019-Jan-28 00:05 C   15 19 33.019992 -18 19 34.96012
 2019-Jan-28 00:06 C   15 19 33.130014 -18 19 35.04978
 2019-Jan-28 00:07 C   15 19 33.240033 -18 19 35.13951
 2019-Jan-28 00:08 C   15 19 33.350050 -18 19 35.22929
 2019-Jan-28 00:09 C   15 19 33.460064 -18 19 35.31913
 2019-Jan-28 00:10 C   15 19 33.570076 -18 19 35.40904
 2019-Jan-28 00:11 N   15 19 33.680085 -18 19 35.49900
 2019-Jan-28 00:12 N   15 19 33.790091 -18 19 35.58903
 2019-Jan-28 00:13 N   15 19 33.900094 -18 19 35.67911
 2019-Jan-28 00:14 N   15 19 34.010095 -18 19 35.76926
 2019-Jan-28 00:15 N   15 19 34.120092 -18 19 35.85946
 2019-Jan-28 00:16 N   15 19 34.230086 -18 19 35.94973
 2019-Jan-28 00:17 N   15 19 34.340077 -18 19 36.04005
 2019-Jan-28 00:18 N   15 19 34.450066 -18 19 36.13044
 2019-Jan-28 00:19 N   15 19 34.560050 -18 19 36.22088
 2019-Jan-28 00:20 N   15 19 34.670032 -18 19 36.31139
 2019-Jan-28 00:21 N   15 19 34.780010 -18 19 36.40195
 2019-Jan-28 00:22 N   15 19 34.889985 -18 19 36.49257
 2019-Jan-28 00:23 N   15 19 34.999956 -18 19 36.58325
 2019-Jan-28 00:24 N   15 19 35.109924 -18 19 36.67400
 2019-Jan-28 00:25 N   15 19 35.219888 -18 19 36.76480
 2019-Jan-28 00:26 N   15 19 35.329848 -18 19 36.85566
 2019-Jan-28 00:27 N   15 19 35.439805 -18 19 36.94658
 2019-Jan-28 00:28 N   15 19 35.549758 -18 19 37.03756
 2019-Jan-28 00:29 N   15 19 35.659707 -18 19 37.12859
 2019-Jan-28 00:30 N   15 19 35.769652 -18 19 37.21969
 2019-Jan-28 00:31 N   15 19 35.879593 -18 19 37.31085
 2019-Jan-28 00:32 N   15 19 35.989530 -18 19 37.40206
 2019-Jan-28 00:33 N   15 19 36.099463 -18 19 37.49334
 2019-Jan-28 00:34 N   15 19 36.209392 -18 19 37.58467
 2019-Jan-28 00:35 N   15 19 36.319317 -18 19 37.67606
 2019-Jan-28 00:36 N   15 19 36.429237 -18 19 37.76751
 2019-Jan-28 00:37 N   15 19 36.539153 -18 19 37.85902
 2019-Jan-28 00:38 N   15 19 36.649064 -18 19 37.95058
 2019-Jan-28 00:39 N   15 19 36.758971 -18 19 38.04221
 2019-Jan-28 00:40 N   15 19 36.868874 -18 19 38.13389
 2019-Jan-28 00:41 N   15 19 36.978771 -18 19 38.22563
 2019-Jan-28 00:42 A   15 19 37.088665 -18 19 38.31743
 2019-Jan-28 00:43 A   15 19 37.198553 -18 19 38.40929
 2019-Jan-28 00:44 A   15 19 37.308437 -18 19 38.50121
 2019-Jan-28 00:45 A   15 19 37.418315 -18 19 38.59318
 2019-Jan-28 00:46 A   15 19 37.528189 -18 19 38.68521
 2019-Jan-28 00:47 A   15 19 37.638058 -18 19 38.77730
 2019-Jan-28 00:48 A   15 19 37.747922 -18 19 38.86945
 2019-Jan-28 00:49 A   15 19 37.857781 -18 19 38.96165
 2019-Jan-28 00:50 A   15 19 37.967634 -18 19 39.05391
 2019-Jan-28 00:51 A   15 19 38.077482 -18 19 39.14623
 2019-Jan-28 00:52 A   15 19 38.187325 -18 19 39.23861
 2019-Jan-28 00:53 A   15 19 38.297163 -18 19 39.33104
 2019-Jan-28 00:54 A   15 19 38.406995 -18 19 39.42353
 2019-Jan-28 00:55 A   15 19 38.516822 -18 19 39.51608
 2019-Jan-28 00:56 A   15 19 38.626643 -18 19 39.60868
 2019-Jan-28 00:57 A   15 19 38.736459 -18 19 39.70134
 2019-Jan-28 00:58 A   15 19 38.846269 -18 19 39.79406
 2019-Jan-28 00:59 A   15 19 38.956073 -18 19 39.88683
 2019-Jan-28 01:00 A   15 19 39.065872 -18 19 39.97967
 2019-Jan-28 01:01 A   15 19 39.175664 -18 19 40.07255
 2019-Jan-28 01:02 A   15 19 39.285451 -18 19 40.16550
 2019-Jan-28 01:03 A   15 19 39.395232 -18 19 40.25849
 2019-Jan-28 01:04 A   15 19 39.505007 -18 19 40.35155
 2019-Jan-28 01:05 A   15 19 39.614775 -18 19 40.44466
 2019-Jan-28 01:06 A   15 19 39.724538 -18 19 40.53783
 2019-Jan-28 01:07 A   15 19 39.834294 -18 19 40.63105
 2019-Jan-28 01:08 A   15 19 39.944045 -18 19 40.72433
 2019-Jan-28 01:09 A   15 19 40.053788 -18 19 40.81766
 2019-Jan-28 01:10 A   15 19 40.163526 -18 19 40.91105
 2019-Jan-28 01:11 A   15 19 40.273257 -18 19 41.00450
 2019-Jan-28 01:12 A   15 19 40.382981 -18 19 41.09799
 2019-Jan-28 01:13 A   15 19 40.492699 -18 19 41.19155
 2019-Jan-28 01:14 A   15 19 40.602411 -18 19 41.28516
 2019-Jan-28 01:15     15 19 40.712115 -18 19 41.37882
 2019-Jan-28 01:16     15 19 40.821813 -18 19 41.47254
 2019-Jan-28 01:17     15 19 40.931505 -18 19 41.56631
 2019-Jan-28 01:18     15 19 41.041189 -18 19 41.66014
 2019-Jan-28 01:19     15 19 41.150866 -18 19 41.75402
 2019-Jan-28 01:20     15 19 41.260537 -18 19 41.84796
 2019-Jan-28 01:21     15 19 41.370200 -18 19 41.94195
 2019-Jan-28 01:22     15 19 41.479857 -18 19 42.03599
 2019-Jan-28 01:23     15 19 41.589506 -18 19 42.13009
 2019-Jan-28 01:24     15 19 41.699148 -18 19 42.22424
 2019-Jan-28 01:25     15 19 41.808783 -18 19 42.31845
 2019-Jan-28 01:26     15 19 41.918410 -18 19 42.41270
 2019-Jan-28 01:27     15 19 42.028030 -18 19 42.50701
 2019-Jan-28 01:28     15 19 42.137643 -18 19 42.60138
 2019-Jan-28 01:29     15 19 42.247248 -18 19 42.69580
 2019-Jan-28 01:30     15 19 42.356846 -18 19 42.79026
 2019-Jan-28 01:31     15 19 42.466436 -18 19 42.88479
 2019-Jan-28 01:32     15 19 42.576018 -18 19 42.97936
 2019-Jan-28 01:33     15 19 42.685593 -18 19 43.07399
 2019-Jan-28 01:34     15 19 42.795160 -18 19 43.16867
 2019-Jan-28 01:35     15 19 42.904719 -18 19 43.26340
 2019-Jan-28 01:36     15 19 43.014270 -18 19 43.35818
 2019-Jan-28 01:37     15 19 43.123814 -18 19 43.45302
 2019-Jan-28 01:38     15 19 43.233349 -18 19 43.54791
 2019-Jan-28 01:39     15 19 43.342876 -18 19 43.64285
 2019-Jan-28 01:40     15 19 43.452396 -18 19 43.73784
 2019-Jan-28 01:41     15 19 43.561907 -18 19 43.83288
 2019-Jan-28 01:42     15 19 43.671410 -18 19 43.92797
 2019-Jan-28 01:43     15 19 43.780904 -18 19 44.02311
 2019-Jan-28 01:44     15 19 43.890390 -18 19 44.11830
 2019-Jan-28 01:45     15 19 43.999868 -18 19 44.21355
 2019-Jan-28 01:46     15 19 44.109338 -18 19 44.30884
 2019-Jan-28 01:47     15 19 44.218799 -18 19 44.40419
 2019-Jan-28 01:48     15 19 44.328251 -18 19 44.49958
 2019-Jan-28 01:49     15 19 44.437695 -18 19 44.59503
 2019-Jan-28 01:50     15 19 44.547130 -18 19 44.69052
 2019-Jan-28 01:51     15 19 44.656557 -18 19 44.78607
 2019-Jan-28 01:52     15 19 44.765974 -18 19 44.88166
 2019-Jan-28 01:53     15 19 44.875383 -18 19 44.97731
 2019-Jan-28 01:54     15 19 44.984784 -18 19 45.07300
 2019-Jan-28 01:55     15 19 45.094175 -18 19 45.16874
